1 43013U 17073A   25321.82691380  .00000143  00000+0  88666-4 0  9994
2 43013  98.7558 258.4010 0001685 123.4201 236.7136 14.19516317414485
